{"type": "FeatureCollection", "features": [ {"type": "Feature", "properties": {"norad_id": 66584, "name": "STARLINK-35939", "group": "last-30-days", "lat": -41.01095717804906, "lon": -30.63443914806695, "alt_km": 434.1698588588042, "timestamp": "2025-12-26T20:30:44.698642+00:00", "meta": {"OBJECT_NAME": "STARLINK-35939", "OBJECT_ID": "2025-268AD", "EPOCH": "2025-12-26T14:00:04.000032", "MEAN_MOTION": 15.4614065, "ECCENTRICITY": 7.222e-05, "INCLINATION": 43.0004, "RA_OF_ASC_NODE": 39.8812, "ARG_OF_PERICENTER": 302.2289, "MEAN_ANOMALY": 272.2099, "EPHEMERIS_TYPE": 0, "CLASSIFICATION_TYPE": "U", "NORAD_CAT_ID": 66584, "ELEMENT_SET_NO": 999, "REV_AT_EPOCH": 607, "BSTAR": -0.044797112, "MEAN_MOTION_DOT": -0.02005587, "MEAN_MOTION_DDOT": 0}, "tle": {"line1": "1 66584U 25268AD  25360.58337963 -.02005587  00000+0 -44797-1 0  9992", "line2": "2 66584  43.0004  39.8812 0000722 302.2289 272.2099 15.46140650  6076"}}, "geometry": {"type": "Point", "coordinates": [-30.63443914806695, -41.01095717804906]}}, {"type": "Feature", "properties": {"norad_id": 66585, "name": "STARLINK-35963", "group": "last-30-days", "lat": 42.73852325399246, "lon": 136.22143003269238, "alt_km": 465.0996303146994, "timestamp": "2025-12-26T20:30:44.698652+00:00", "meta": {"OBJECT_NAME": "STARLINK-35963", "OBJECT_ID": "2025-268AE", "EPOCH": "2025-12-26T14:00:04.000032", "MEAN_MOTION": 15.32844698, "ECCENTRICITY": 0.0001553, "INCLINATION": 43.0009, "RA_OF_ASC_NODE": 40.314, "ARG_OF_PERICENTER": 270.4812, "MEAN_ANOMALY": 126.6589, "EPHEMERIS_TYPE": 0, "CLASSIFICATION_TYPE": "U", "NORAD_CAT_ID": 66585, "ELEMENT_SET_NO": 999, "REV_AT_EPOCH": 607, "BSTAR": -0.067265916, "MEAN_MOTION_DOT": -0.01943147, "MEAN_MOTION_DDOT": 0}, "tle": {"line1": "1 66585U 25268AE  25360.58337963 -.01943147  00000+0 -67266-1 0  9991", "line2": "2 66585  43.0009  40.3140 0001553 270.4812 126.6589 15.32844698  6078"}}, "geometry": {"type": "Point", "coordinates": [136.22143003269238, 42.73852325399246]}}, {"type": "Feature", "properties": {"norad_id": 66586, "name": "TJS-21", "group": "last-30-days", "lat": 61.48844841733124, "lon": -131.088607643373, "alt_km": 36852.06566174786, "timestamp": "2025-12-26T20:30:44.698664+00:00", "meta": {"OBJECT_NAME": "TJS-21", "OBJECT_ID": "2025-269A", "EPOCH": "2025-12-18T16:58:10.473888", "MEAN_MOTION": 2.00580748, "ECCENTRICITY": 0.6806869, "INCLINATION": 63.2733, "RA_OF_ASC_NODE": 161.7218, "ARG_OF_PERICENTER": 269.7428, "MEAN_ANOMALY": 18.6663, "EPHEMERIS_TYPE": 0, "CLASSIFICATION_TYPE": "U", "NORAD_CAT_ID": 66586, "ELEMENT_SET_NO": 999, "REV_AT_EPOCH": 55, "BSTAR": -0.059507049, "MEAN_MOTION_DOT": 1.084e-05, "MEAN_MOTION_DDOT": 0}, "tle": {"line1": "1 66586U 25269A   25352.70706567  .00001084  00000+0 -59507-1 0  9990", "line2": "2 66586  63.2733 161.7218 6806869 269.7428  18.6663  2.00580748   558"}}, "geometry": {"type": "Point", "coordinates": [-131.088607643373, 61.48844841733124]}}, {"type": "Feature", "properties": {"norad_id": 66588, "name": "STARLINK-36076", "group": "last-30-days", "lat": -42.854641511944386, "lon": 26.75280368167952, "alt_km": 445.6085505926203, "timestamp": "2025-12-26T20:30:44.698677+00:00", "meta": {"OBJECT_NAME": "STARLINK-36076", "OBJECT_ID": "2025-270A", "EPOCH": "2025-12-26T14:39:40.692960", "MEAN_MOTION": 15.40711911, "ECCENTRICITY": 0.00028476, "INCLINATION": 42.9974, "RA_OF_ASC_NODE": 112.8566, "ARG_OF_PERICENTER": 300.8003, "MEAN_ANOMALY": 59.2573, "EPHEMERIS_TYPE": 0, "CLASSIFICATION_TYPE": "U", "NORAD_CAT_ID": 66588, "ELEMENT_SET_NO": 999, "REV_AT_EPOCH": 648, "BSTAR": 0.0010138671, "MEAN_MOTION_DOT": 0.00042303, "MEAN_MOTION_DDOT": 0}, "tle": {"line1": "1 66588U 25270A   25360.61088765  .00042303  00000+0  10139-2 0  9993", "line2": "2 66588  42.9974 112.8566 0002847 300.8003  59.2573 15.40711911  6483"}}, "geometry": {"type": "Point", "coordinates": [26.75280368167952, -42.854641511944386]}}, {"type": "Feature", "properties": {"norad_id": 66589, "name": "STARLINK-35447", "group": "last-30-days", "lat": 9.211035420407818, "lon": 121.22805446522412, "alt_km": 442.5430855027398, "timestamp": "2025-12-26T20:30:44.698687+00:00", "meta": {"OBJECT_NAME": "STARLINK-35447", "OBJECT_ID": "2025-270B", "EPOCH": "2025-12-25T14:53:33.760896", "MEAN_MOTION": 15.4069884, "ECCENTRICITY": 0.0001173, "INCLINATION": 43.0008, "RA_OF_ASC_NODE": 118.3206, "ARG_OF_PERICENTER": 257.0782, "MEAN_ANOMALY": 102.9943, "EPHEMERIS_TYPE": 0, "CLASSIFICATION_TYPE": "U", "NORAD_CAT_ID": 66589, "ELEMENT_SET_NO": 999, "REV_AT_EPOCH": 644, "BSTAR": 0.00080611, "MEAN_MOTION_DOT": 0.00033516, "MEAN_MOTION_DDOT": 0}, "tle": {"line1": "1 66589U 25270B   25359.62052964  .00033516  00000+0  80611-3 0  9994", "line2": "2 66589  43.0008 118.3206 0001173 257.0782 102.9943 15.40698840  6442"}}, "geometry": {"type": "Point", "coordinates": [121.22805446522412, 9.211035420407818]}}, {"type": "Feature", "properties": {"norad_id": 66590, "name": "STARLINK-35429", "group": "last-30-days", "lat": 42.016340845853925, "lon": -144.1833933999106, "alt_km": 437.9252918530774, "timestamp": "2025-12-26T20:30:44.698696+00:00", "meta": {"OBJECT_NAME": "STARLINK-35429", "OBJECT_ID": "2025-270C", "EPOCH": "2025-12-25T17:37:41.590560", "MEAN_MOTION": 15.40721997, "ECCENTRICITY": 0.0001639, "INCLINATION": 43.002, "RA_OF_ASC_NODE": 117.4547, "ARG_OF_PERICENTER": 273.6487, "MEAN_ANOMALY": 86.4182, "EPHEMERIS_TYPE": 0, "CLASSIFICATION_TYPE": "U", "NORAD_CAT_ID": 66590, "ELEMENT_SET_NO": 999, "REV_AT_EPOCH": 646, "BSTAR": 0.001733211, "MEAN_MOTION_DOT": 0.00072845, "MEAN_MOTION_DDOT": 0}, "tle": {"line1": "1 66590U 25270C   25359.73450915  .00072845  00000+0  17332-2 0  9993", "line2": "2 66590  43.0020 117.4547 0001639 273.6487  86.4182 15.40721997  6462"}}, "geometry": {"type": "Point", "coordinates": [-144.1833933999106, 42.016340845853925]}}, {"type": "Feature", "properties": {"norad_id": 66591, "name": "STARLINK-36058", "group": "last-30-days", "lat": -5.319396847542236, "lon": -63.48354492564506, "alt_km": 443.2897591505707, "timestamp": "2025-12-26T20:30:44.698705+00:00", "meta": {"OBJECT_NAME": "STARLINK-36058", "OBJECT_ID": "2025-270D", "EPOCH": "2025-12-26T08:48:38.578752", "MEAN_MOTION": 15.40737755, "ECCENTRICITY": 0.0001499, "INCLINATION": 42.9948, "RA_OF_ASC_NODE": 113.5918, "ARG_OF_PERICENTER": 166.2109, "MEAN_ANOMALY": 193.8789, "EPHEMERIS_TYPE": 0, "CLASSIFICATION_TYPE": "U", "NORAD_CAT_ID": 66591, "ELEMENT_SET_NO": 999, "REV_AT_EPOCH": 645, "BSTAR": 0.00092815549, "MEAN_MOTION_DOT": 0.00038714, "MEAN_MOTION_DDOT": 0}, "tle": {"line1": "1 66591U 25270D   25360.36711318  .00038714  00000+0  92816-3 0  9990", "line2": "2 66591  42.9948 113.5918 0001499 166.2109 193.8789 15.40737755  6455"}}, "geometry": {"type": "Point", "coordinates": [-63.48354492564506, -5.319396847542236]}}, {"type": "Feature", "properties": {"norad_id": 66592, "name": "STARLINK-36066", "group": "last-30-days", "lat": -23.76061350898491, "lon": 83.13953221626876, "alt_km": 445.2631065501455, "timestamp": "2025-12-26T20:30:44.698715+00:00", "meta": {"OBJECT_NAME": "STARLINK-36066", "OBJECT_ID": "2025-270E", "EPOCH": "2025-12-26T08:13:21.290592", "MEAN_MOTION": 15.40749213, "ECCENTRICITY": 0.0001723, "INCLINATION": 43.0012, "RA_OF_ASC_NODE": 114.282, "ARG_OF_PERICENTER": 268.5662, "MEAN_ANOMALY": 91.4997, "EPHEMERIS_TYPE": 0, "CLASSIFICATION_TYPE": "U", "NORAD_CAT_ID": 66592, "ELEMENT_SET_NO": 999, "REV_AT_EPOCH": 634, "BSTAR": 0.0013745095, "MEAN_MOTION_DOT": 0.00057643, "MEAN_MOTION_DDOT": 0}, "tle": {"line1": "1 66592U 25270E   25360.34260753  .00057643  00000+0  13745-2 0  9996", "line2": "2 66592  43.0012 114.2820 0001723 268.5662  91.4997 15.40749213  6344"}}, "geometry": {"type": "Point", "coordinates": [83.13953221626876, -23.76061350898491]}}, {"type": "Feature", "properties": {"norad_id": 66593, "name": "STARLINK-36031", "group": "last-30-days", "lat": 31.944317131347674, "lon": 153.11133577574375, "alt_km": 439.7731643240686, "timestamp": "2025-12-26T20:30:44.698725+00:00", "meta": {"OBJECT_NAME": "STARLINK-36031", "OBJECT_ID": "2025-270F", "EPOCH": "2025-12-25T17:50:35.504736", "MEAN_MOTION": 15.40707259, "ECCENTRICITY": 0.00018776, "INCLINATION": 43.0021, "RA_OF_ASC_NODE": 117.5214, "ARG_OF_PERICENTER": 259.4699, "MEAN_ANOMALY": 100.5946, "EPHEMERIS_TYPE": 0, "CLASSIFICATION_TYPE": "U", "NORAD_CAT_ID": 66593, "ELEMENT_SET_NO": 999, "REV_AT_EPOCH": 635, "BSTAR": 0.00071243351, "MEAN_MOTION_DOT": 0.00029579, "MEAN_MOTION_DDOT": 0}, "tle": {"line1": "1 66593U 25270F   25359.74346649  .00029579  00000+0  71243-3 0  9993", "line2": "2 66593  43.0021 117.5214 0001877 259.4699 100.5946 15.40707259  6358"}}, "geometry": {"type": "Point", "coordinates": [153.11133577574375, 31.944317131347674]}}, {"type": "Feature", "properties": {"norad_id": 66594, "name": "STARLINK-36032", "group": "last-30-days", "lat": 19.599191365395566, "lon": -91.58831121820133, "alt_km": 441.1180203025542, "timestamp": "2025-12-26T20:30:44.698735+00:00", "meta": {"OBJECT_NAME": "STARLINK-36032", "OBJECT_ID": "2025-270G", "EPOCH": "2025-12-26T10:31:39.245088", "MEAN_MOTION": 15.40757073, "ECCENTRICITY": 0.00013018, "INCLINATION": 42.9975, "RA_OF_ASC_NODE": 113.2764, "ARG_OF_PERICENTER": 265.4494, "MEAN_ANOMALY": 94.6214, "EPHEMERIS_TYPE": 0, "CLASSIFICATION_TYPE": "U", "NORAD_CAT_ID": 66594, "ELEMENT_SET_NO": 999, "REV_AT_EPOCH": 627, "BSTAR": 0.00069468209, "MEAN_MOTION_DOT": 0.0002888, "MEAN_MOTION_DDOT": 0}, "tle": {"line1": "1 66594U 25270G   25360.43864867  .00028880  00000+0  69468-3 0  9999", "line2": "2 66594  42.9975 113.2764 0001301 265.4494  94.6214 15.40757073  6271"}}, "geometry": {"type": "Point", "coordinates": [-91.58831121820133, 19.599191365395566]}}]}